IRIDIUM 166             
1 43570U 18061B   24031.51418816  .00000288  00000+0  95637-4 0  9990
2 43570  86.3928  59.3499 0001833  92.8954 267.2452 14.34220917289031
IRIDIUM 158             
1 43571U 18061C   24031.48247796  .00000356  00000+0  12020-3 0  9994
2 43571  86.3929  59.3723 0002125  99.2162 260.9274 14.34220215288997
IRIDIUM 165             
1 43572U 18061D   24031.50784885  .00000352  00000+0  11871-3 0  9992
2 43572  86.3930  59.3916 0002093 100.6406 259.5025 14.34220653289025
IRIDIUM 155             
1 43573U 18061E   24031.53956072  .00000336  00000+0  11305-3 0  9999
2 43573  86.3926  59.2902 0002092  86.6211 273.5224 14.34220328288992
IRIDIUM 154             
1 43574U 18061F   24031.52053679 -.00000041  00000+0 -21816-4 0  9994
2 43574  86.3926  59.3890 0002321  91.7121 268.4341 14.34218535289049
IRIDIUM 163             
1 43575U 18061G   24031.50150618  .00000324  00000+0  10866-3 0  9998
2 43575  86.3927  59.3399 0002296  89.8823 270.2636 14.34216690289018
IRIDIUM 156             
1 43576U 18061H   24031.47613517  .00000283  00000+0  94048-4 0  9996
2 43576  86.3929  59.3565 0002003  96.5545 263.5879 14.34219860289003
IRIDIUM 164             
1 43577U 18061J   24031.45710688  .00000256  00000+0  84346-4 0  9992
2 43577  86.3929  59.3913 0002244  99.2299 260.9151 14.34219781289044
